*******************************************************************************
JPL/HORIZONS               1542 Schalen (1941 QE)          2023-Sep-04 11:12:45
Rec #:    1542 (+COV) Soln.date: 2023-Aug-22_04:46:54   # obs: 4426 (1898-2023)
 
IAU76/J2000 helio. ecliptic osc. elements (au, days, deg., period=Julian yrs):
 
  EPOCH=  2456900.5 ! 2014-Aug-31.00 (TDB)         Residual RMS= .26504
   EC= .1142245493739578   QR= 2.743251956930758   TP= 2456228.708822533
   OM= 211.7330148387202   W=  164.4345570819633   IN= 2.762081779254174
   A= 3.097006080933832    MA= 121.4857342251507   ADIST= 3.450760204936906
   PER= 5.45031            N= .180838538           ANGMOM= .030074655
   DAN= 3.43452            DDN= 2.7536             L= 16.1847799
   B= .7409075000000001    MOID= 1.74416006        TP= 2012-Oct-28.2088225330
 
Asteroid physical parameters (km, seconds, rotational period in hours):
   GM= n.a.                RAD= 21.187             ROTPER= 7.516
   H= 10.62                G= .150                 B-V= n.a.
                           ALBEDO= .068            STYP= D

ASTEROID comments: 
1: soln ref.= JPL#66, OCC=0
2: source=ORB
*******************************************************************************


*******************************************************************************
Ephemeris / API_USER Mon Sep  4 11:12:45 2023 Pasadena, USA      / Horizons
*******************************************************************************
Target body name: 1542 Schalen (1941 QE)          {source: JPL#66}
Center body name: Solar System Barycenter (0)     {source: DE441}
Center-site name: BODY CENTER
*******************************************************************************
Start time      : A.D. 2023-Aug-12 00:00:00.0000 TDB
Stop  time      : A.D. 2023-Aug-13 00:00:00.0000 TDB
Step-size       : 2880 minutes
*******************************************************************************
Center geodetic : 0.0, 0.0, 0.0                   {E-lon(deg),Lat(deg),Alt(km)}
Center cylindric: 0.0, 0.0, 0.0                   {E-lon(deg),Dxy(km),Dz(km)}
Center radii    : (undefined)
Small perturbers: Yes                             {source: SB441-N16}
Output units    : KM-S
Calendar mode   : Mixed Julian/Gregorian
Output type     : GEOMETRIC cartesian states
Output format   : 2 (position and velocity)
Reference frame : Ecliptic of J2000.0
*******************************************************************************
Initial IAU76/J2000 heliocentric ecliptic osculating elements (au, days, deg.):
  EPOCH=  2456900.5 ! 2014-Aug-31.00 (TDB)         Residual RMS= .26504        
   EC= .1142245493739578   QR= 2.743251956930758   TP= 2456228.708822533       
   OM= 211.7330148387202   W=  164.4345570819633   IN= 2.762081779254174       
  Equivalent ICRF heliocentric cartesian coordinates (au, au/d):
   X=-2.803499809682037E+00  Y= 1.663544062473094E+00  Z= 5.653803142696021E-01
  VX=-5.531400292756672E-03 VY=-6.723551431522097E-03 VZ=-2.743311212036158E-03
Asteroid physical parameters (km, seconds, rotational period in hours):        
   GM= n.a.                RAD= 21.187             ROTPER= 7.516               
   H= 10.62                G= .150                 B-V= n.a.                   
                           ALBEDO= .068            STYP= D                     
*******************************************************************************
JDTDB
   X     Y     Z
   VX    VY    VZ
*******************************************************************************
$$SOE
2460168.500000000 = A.D. 2023-Aug-12 00:00:00.0000 TDB 
 X = 4.027245586466022E+08 Y = 5.907518834172303E+07 Z = 7.830529136600003E+06
 VX=-2.984876020244986E+00 VY= 1.878764911382785E+01 VZ=-8.500572016302961E-01
$$EOE
*******************************************************************************
 
TIME

  Barycentric Dynamical Time ("TDB" or T_eph) output was requested. This
continuous coordinate time is equivalent to the relativistic proper time
of a clock at rest in a reference frame co-moving with the solar system
barycenter but outside the system's gravity well. It is the independent
variable in the solar system relativistic equations of motion.

  TDB runs at a uniform rate of one SI second per second and is independent
of irregularities in Earth's rotation.
 
CALENDAR SYSTEM

  Mixed calendar mode was active such that calendar dates after AD 1582-Oct-15
(if any) are in the modern Gregorian system. Dates prior to 1582-Oct-5 (if any)
are in the Julian calendar system, which is automatically extended for dates
prior to its adoption on 45-Jan-1 BC.  The Julian calendar is useful for
matching historical dates. The Gregorian calendar more accurately corresponds
to the Earth's orbital motion and seasons. A "Gregorian-only" calendar mode is
available if such physical events are the primary interest.

REFERENCE FRAME AND COORDINATES

  Ecliptic at the standard reference epoch

    Reference epoch: J2000.0
    X-Y plane: adopted Earth orbital plane at the reference epoch
               Note: IAU76 obliquity of 84381.448 arcseconds wrt ICRF X-Y plane
    X-axis   : ICRF
    Z-axis   : perpendicular to the X-Y plane in the directional (+ or -) sense
               of Earth's north pole at the reference epoch.

  Symbol meaning:

    JDTDB    Julian Day Number, Barycentric Dynamical Time
      X      X-component of position vector (km)
      Y      Y-component of position vector (km)
      Z      Z-component of position vector (km)
      VX     X-component of velocity vector (km/sec)                           
      VY     Y-component of velocity vector (km/sec)                           
      VZ     Z-component of velocity vector (km/sec)                           

ABERRATIONS AND CORRECTIONS

 Geometric state vectors have NO corrections or aberrations applied.

Computations by ...

    Solar System Dynamics Group, Horizons On-Line Ephemeris System
    4800 Oak Grove Drive, Jet Propulsion Laboratory
    Pasadena, CA  91109   USA

    General site: https://ssd.jpl.nasa.gov/
    Mailing list: https://ssd.jpl.nasa.gov/email_list.html
    System news : https://ssd.jpl.nasa.gov/horizons/news.html
    User Guide  : https://ssd.jpl.nasa.gov/horizons/manual.html
    Connect     : browser        https://ssd.jpl.nasa.gov/horizons/app.html#/x
                  API            https://ssd-api.jpl.nasa.gov/doc/horizons.html
                  command-line   telnet ssd.jpl.nasa.gov 6775
                  e-mail/batch   https://ssd.jpl.nasa.gov/ftp/ssd/hrzn_batch.txt
                  scripts        https://ssd.jpl.nasa.gov/ftp/ssd/SCRIPTS
    Author      : Jon.D.Giorgini@jpl.nasa.gov
*******************************************************************************
